     2.100          NAVIGATION                              RINEX VERSION / TYPE
fic2rin                                 05/10/2017 01:08:04 PGM / RUN BY / DATE
                                                            END OF HEADER
 3 17  5  9 20  0  0.0 -.101197510958D-03  .170530256582D-11  .000000000000D+00
     .110000000000D+02 -.459687500000D+02  .467269463649D-08 -.926446786616D+00
    -.237114727497D-05  .636909506284D-03  .655651092529D-05  .515373877907D+04
     .244800000000D+06  .465661287308D-07 -.109830486542D+01 -.115483999252D-06
     .959508903443D+00  .255187500000D+03  .618928850128D-01 -.811248077453D-08
    -.546808491054D-09  .100000000000D+01  .194800000000D+04  .000000000000D+00
     .240000000000D+01  .000000000000D+00  .232830643654D-08  .110000000000D+02
     .237606000000D+06  .400000000000D+01
 4 17  5  9 20  0  0.0  .322842970490D-05  .682121026330D-12  .000000000000D+00
     .540000000000D+02 -.103250000000D+03  .558058959681D-08  .292798398999D+01
    -.539980828762D-05  .920062884688D-02  .464729964733D-05  .515375087929D+04
     .244800000000D+06 -.745058059692D-08  .206878709544D+01 -.135973095894D-06
     .981848196478D+00  .301687500000D+03  .902572727206D+00 -.797283210046D-08
    -.372872674501D-09  .100000000000D+01  .194800000000D+04  .000000000000D+00
     .340000000000D+01  .630000000000D+02 -.195577740669D-07  .540000000000D+02
     .237606000000D+06  .400000000000D+01
 5 17  5  9 20  0  0.0 -.467780046165D-04  .181898940355D-11  .000000000000D+00
     .710000000000D+02 -.435000000000D+02  .499163649312D-08  .265893644534D+01
    -.230781733990D-05  .495219498407D-02  .635348260403D-05  .515373675537D+04
     .244800000000D+06 -.298023223877D-07 -.111490476364D+01 -.428408384323D-07
     .946462003141D+00  .251031250000D+03  .535088543946D+00 -.825105797540D-08
    -.453590322429D-09  .100000000000D+01  .194800000000D+04  .000000000000D+00
     .240000000000D+01  .000000000000D+00 -.107102096081D-07  .710000000000D+02
     .237606000000D+06  .400000000000D+01
 6 17  5  9 20  0  0.0  .348730012774D-03  .500222085975D-11  .000000000000D+00
     .700000000000D+01  .380937500000D+02  .459912014324D-08 -.166033043303D+00
     .201165676117D-05  .805554445833D-03  .614672899246D-05  .515366236496D+04
     .244800000000D+06 -.335276126862D-07 -.214944422939D+01  .931322574615D-08
     .966833680138D+00  .266000000000D+03 -.114191001487D+01 -.809855162290D-08
     .300012496725D-09  .100000000000D+01  .194800000000D+04  .000000000000D+00
     .240000000000D+01  .000000000000D+00  .465661287308D-08  .700000000000D+01
     .237606000000D+06  .400000000000D+01
 7 17  5  9 20  0  0.0  .353327952325D-03 -.432009983342D-11  .000000000000D+00
     .510000000000D+02  .791875000000D+02  .472019661514D-08 -.912118431520D+00
     .428035855293D-05  .104318278609D-01  .325217843056D-05  .515374194145D+04
     .244800000000D+06  .204890966415D-06  .101617856380D+01  .763684511185D-07
     .962489926723D+00  .314187500000D+03 -.260458196695D+01 -.837606318237D-08
     .415374444870D-09  .100000000000D+01  .194800000000D+04  .000000000000D+00
     .240000000000D+01  .000000000000D+00 -.111758708954D-07  .510000000000D+02
     .237606000000D+06  .400000000000D+01
 8 17  5  9 20  0  0.0 -.591534189880D-04 -.136424205266D-11  .000000000000D+00
     .970000000000D+02 -.463437500000D+02  .421446126351D-08  .239037225614D+01
    -.210292637348D-05  .258761446457D-02  .118575990200D-04  .515363438988D+04
     .244800000000D+06  .109896063805D-06  .307969550124D+01  .689178705215D-07
     .966965404208D+00  .152875000000D+03 -.696564135149D+00 -.777353808478D-08
     .671456540289D-10  .100000000000D+01  .194800000000D+04  .000000000000D+00
     .340000000000D+01  .000000000000D+00  .512227416039D-08  .970000000000D+02
     .237606000000D+06  .400000000000D+01
10 17  5  9 20  0  0.0 -.578211620450D-04  .932232069317D-11  .000000000000D+00
     .100000000000D+03 -.429062500000D+02  .462733560424D-08 -.249288557199D+01
    -.224821269512D-05  .248566933442D-02  .682100653648D-05  .515366811752D+04
     .244800000000D+06  .186264514923D-08 -.110203572346D+01  .391155481339D-07
     .959675739009D+00  .248437500000D+03 -.277380587743D+01 -.805926427213D-08
    -.452518849226D-09  .100000000000D+01  .194800000000D+04  .000000000000D+00
     .240000000000D+01  .000000000000D+00  .186264514923D-08  .100000000000D+03
     .237606000000D+06  .400000000000D+01
11 17  5  9 20  0  0.0 -.686950050294D-03 -.261479726760D-11  .000000000000D+00
     .630000000000D+02  .420312500000D+02  .610525430835D-08 -.904723256281D+00
     .233575701714D-05  .167014783947D-01  .870972871780D-05  .515370630074D+04
     .244800000000D+06 -.284984707832D-06 -.254224182107D+01  .726431608200D-07
     .900747728124D+00  .180468750000D+03  .163963200596D+01 -.902644741634D-08
     .438946855327D-09  .100000000000D+01  .194800000000D+04  .000000000000D+00
     .240000000000D+01  .000000000000D+00 -.121071934700D-07  .630000000000D+02
     .237606000000D+06  .400000000000D+01
12 17  5  9 20  0  0.0  .383927952498D-03 -.795807864051D-12  .000000000000D+00
     .750000000000D+02 -.900312500000D+02  .421303263258D-08 -.149480154055D+01
    -.459514558315D-05  .670466618612D-02  .496208667755D-05  .515353425598D+04
     .244800000000D+06  .894069671631D-07  .210065127400D+01  .409781932831D-07
     .989130077489D+00  .298250000000D+03  .854693143252D+00 -.796033157976D-08
    -.253224833545D-09  .100000000000D+01  .194800000000D+04  .000000000000D+00
     .240000000000D+01  .000000000000D+00 -.125728547573D-07  .750000000000D+02
     .237606000000D+06  .400000000000D+01
13 17  5  9 20  0  0.0 -.811591744423D-04 -.136424205266D-11  .000000000000D+00
     .640000000000D+02  .698125000000D+02  .400302388487D-08  .133559102930D+00
     .348128378391D-05  .379021535628D-02  .108890235424D-04  .515369429588D+04
     .244800000000D+06 -.372529029846D-07  .637744244150D-01 -.596046447754D-07
     .970183329516D+00  .173625000000D+03  .183965040345D+01 -.779318176016D-08
     .782175437889D-10  .100000000000D+01  .194800000000D+04  .000000000000D+00
     .240000000000D+01  .000000000000D+00 -.111758708954D-07  .640000000000D+02
     .237606000000D+06  .400000000000D+01
14 17  5  9 20  0  0.0 -.700834207237D-04 -.147792889038D-11  .000000000000D+00
     .780000000000D+02  .662812500000D+02  .410124226177D-08  .150808246825D+01
     .350177288055D-05  .903765158728D-02  .121872872114D-04  .515365808296D+04
     .244800000000D+06 -.201165676117D-06  .244651061099D-01 -.106170773506D-06
     .962695558877D+00  .142687500000D+03 -.196045106280D+01 -.787889961637D-08
     .625026034843D-10  .100000000000D+01  .194800000000D+04  .000000000000D+00
     .240000000000D+01  .000000000000D+00 -.931322574615D-08  .780000000000D+02
     .237606000000D+06  .400000000000D+01
15 17  5  9 20  0  0.0 -.349562615156D-03 -.795807864051D-12  .000000000000D+00
     .150000000000D+02  .425937500000D+02  .486770275936D-08  .957768206479D+00
     .229105353355D-05  .913081783801D-02  .114776194096D-04  .515379860878D+04
     .244800000000D+06 -.113621354103D-06 -.123209176957D+00  .949949026108D-07
     .929679623448D+00  .142593750000D+03  .580178903420D+00 -.818748389871D-08
    -.203579908492D-09  .100000000000D+01  .194800000000D+04  .000000000000D+00
     .240000000000D+01  .000000000000D+00 -.107102096081D-07  .150000000000D+02
     .237606000000D+06  .400000000000D+01
16 17  5  9 20  0  0.0  .329660251737D-04  .682121026330D-12  .000000000000D+00
     .660000000000D+02 -.105875000000D+03  .409945647310D-08  .277423176214D+01
    -.550411641598D-05  .936966796871D-02  .512972474098D-05  .515369371223D+04
     .244800000000D+06 -.949949026108D-07  .211951312737D+01 -.819563865662D-07
     .989618450746D+00  .298156250000D+03  .445747699432D+00 -.784746973576D-08
    -.368586781690D-09  .100000000000D+01  .194800000000D+04  .000000000000D+00
     .240000000000D+01  .000000000000D+00 -.107102096081D-07  .660000000000D+02
     .237606000000D+06  .400000000000D+01
17 17  5  9 20  0  0.0 -.180365052074D-03  .170530256582D-11  .000000000000D+00
     .800000000000D+02 -.391875000000D+02  .379265797943D-08  .181182704747D+01
    -.227428972721D-05  .116170520196D-01  .114943832159D-04  .515363153267D+04
     .244800000000D+06 -.577419996262D-07  .313697863191D+01 -.309199094772D-06
     .980201453965D+00  .169375000000D+03 -.184938331008D+01 -.752888503685D-08
     .108933108930D-09  .100000000000D+01  .194800000000D+04  .000000000000D+00
     .240000000000D+01  .000000000000D+00 -.111758708954D-07  .800000000000D+02
     .237606000000D+06  .400000000000D+01
18 17  5  9 20  0  0.0  .614681746811D-03  .193267624127D-11  .000000000000D+00
     .580000000000D+02 -.503437500000D+02  .533343644475D-08 -.300725861077D+01
    -.258721411228D-05  .180497873807D-01  .591762363911D-05  .515375478172D+04
     .244800000000D+06  .227242708206D-06 -.114351501302D+01 -.614672899246D-07
     .925231337222D+00  .243625000000D+03 -.180648773734D+01 -.818605526777D-08
    -.442875590403D-09  .100000000000D+01  .194800000000D+04  .000000000000D+00
     .240000000000D+01  .000000000000D+00 -.111758708954D-07  .580000000000D+02
     .237606000000D+06  .400000000000D+01
19 17  5  9 20  0  0.0 -.504263676703D-03  .136424205266D-11  .000000000000D+00
     .680000000000D+02 -.210625000000D+02  .394159275459D-08 -.136975075015D+01
    -.102818012238D-05  .102666283492D-01  .113286077976D-04  .515366884041D+04
     .244800000000D+06  .204890966415D-06 -.309834882296D+01  .100582838058D-06
     .977456959669D+00  .168843750000D+03  .964148015629D+00 -.759388774448D-08
     .168578450541D-09  .100000000000D+01  .194800000000D+04  .000000000000D+00
     .240000000000D+01  .000000000000D+00 -.153668224812D-07  .680000000000D+02
     .237606000000D+06  .400000000000D+01
